[{"OBJECT_NAME":"TIANMU-1 10","OBJECT_ID":"2023-101D","EPOCH":"2026-03-09T23:06:46.939392","MEAN_MOTION":15.2921896,"ECCENTRICITY":0.00069292,"INCLINATION":97.2749,"RA_OF_ASC_NODE":122.1027,"ARG_OF_PERICENTER":133.6162,"MEAN_ANOMALY":226.5654,"EPHEMERIS_TYPE":0,"CLASSIFICATION_TYPE":"U","NORAD_CAT_ID":57402,"ELEMENT_SET_NO":999,"REV_AT_EPOCH":14647,"BSTAR":0.00032238884,"MEAN_MOTION_DOT":9.075e-5,"MEAN_MOTION_DDOT":0},{"OBJECT_NAME":"STARLINK-35699","OBJECT_ID":"2025-268A","EPOCH":"2026-03-09T03:48:31.739616","MEAN_MOTION":15.27557802,"ECCENTRICITY":0.00017558,"INCLINATION":43.0027,"RA_OF_ASC_NODE":350.493,"ARG_OF_PERICENTER":256.2018,"MEAN_ANOMALY":103.8638,"EPHEMERIS_TYPE":0,"CLASSIFICATION_TYPE":"U","NORAD_CAT_ID":66557,"ELEMENT_SET_NO":999,"REV_AT_EPOCH":1787,"BSTAR":0.0012539595,"MEAN_MOTION_DOT":0.00034382,"MEAN_MOTION_DDOT":0}]
